STARLINK-3194           
1 49758U 21115AL  21353.58334491  .00045846  00000+0  11184-2 0  9997
2 49758  53.2140 238.9112 0001603  49.8765  61.4857 15.40448738  3025
STARLINK-3204           
1 49759U 21115AM  21353.58334491  .00056697  00000+0  13792-2 0  9991
2 49759  53.2145 238.9057 0001507  51.3244  63.1863 15.40440718  3028
STARLINK-3199           
1 49760U 21115AN  21353.58334491  .00020274  00000+0  50147-3 0  9991
2 49760  53.2139 238.9153 0001440  53.9153  55.3535 15.40462592  3026
STARLINK-3203           
1 49761U 21115AP  21353.58334491  .00024997  00000+0  61585-3 0  9996
2 49761  53.2144 238.9096 0001722  41.9033  70.5480 15.40451413  3024
STARLINK-3195           
1 49762U 21115AQ  21353.58334491  .00019592  00000+0  48513-3 0  9998
2 49762  53.2139 238.9192 0001345  57.2241  49.9743 15.40452395  3020
STARLINK-3198           
1 49763U 21115AR  21353.58334491  .00029635  00000+0  72784-3 0  9995
2 49763  53.2141 238.9138 0001517  55.7922  54.5342 15.40452489  3025
STARLINK-3206           
1 49764U 21115AS  21353.58334491  .00020243  00000+0  50080-3 0  9997
2 49764  53.2137 238.9232 0001460  57.1383  47.9554 15.40457386  3022
STARLINK-3227           
1 49765U 21115AT  21353.58334491  .00059382  00000+0  14437-2 0  9999
2 49765  53.2142 238.9176 0001288  57.2439  50.9876 15.40437706  3022
